start=new Date('2022-09-26T00:00:00.000Z').valueOf();
sats=[{"RA_OF_ASC_NODE":"341.8295","CLASSIFICATION_TYPE":"U","BSTAR":"-0.00051510000000","TLE_LINE1":"1 53037U 22076BD  22268.91668981 -.00072412  00000-0 -51510-3 0  9996","SEMIMAJOR_AXIS":"6727.833","APOAPSIS":"352.719","DECAY_DATE":null,"COUNTRY_CODE":"US","ELEMENT_SET_NO":"999","EPOCH":"2022-09-25T22:00:01.999584","ECCENTRICITY":"0.00044900","MEAN_MOTION":"15.73221769","MEAN_ELEMENT_THEORY":"SGP4","REV_AT_EPOCH":"130","OBJECT_NAME":"STARLINK-4153","OBJECT_TYPE":"PAYLOAD","MEAN_ANOMALY":"243.7503","TLE_LINE2":"2 53037  53.2159 341.8295 0004490   3.3640 243.7503 15.73221769  1301","GP_ID":"213509325","MEAN_MOTION_DDOT":"0.0000000000000","RCS_SIZE":"LARGE","MEAN_MOTION_DOT":"-0.00072412","INCLINATION":"53.2159","TIME_SYSTEM":"UTC","PERIOD":"91.532","CENTER_NAME":"EARTH","SITE":"AFETR","ARG_OF_PERICENTER":"3.3640","LAUNCH_DATE":"2022-07-07","OBJECT_ID":"2022-076BD","NORAD_CAT_ID":"53037","FILE":"3583828","PERIAPSIS":"346.677","REF_FRAME":"TEME","EPHEMERIS_TYPE":"0"},{"REF_FRAME":"TEME","PERIAPSIS":"346.813","EPHEMERIS_TYPE":"0","ARG_OF_PERICENTER":"352.3862","OBJECT_ID":"2022-076BE","LAUNCH_DATE":"2022-07-07","FILE":"3583828","NORAD_CAT_ID":"53038","PERIOD":"91.533","SITE":"AFETR","CENTER_NAME":"EARTH","RCS_SIZE":"LARGE","TIME_SYSTEM":"UTC","INCLINATION":"53.2143","MEAN_MOTION_DOT":"-0.00072946","MEAN_MOTION_DDOT":"0.0000000000000","GP_ID":"213510037","TLE_LINE2":"2 53038  53.2143 341.8272 0004331 352.3862 255.3789 15.73211607  1302","OBJECT_NAME":"STARLINK-4156","REV_AT_EPOCH":"130","OBJECT_TYPE":"PAYLOAD","MEAN_ANOMALY":"255.3789","ECCENTRICITY":"0.00043310","EPOCH":"2022-09-25T22:00:01.999584","MEAN_MOTION":"15.73211607","ELEMENT_SET_NO":"999","MEAN_ELEMENT_THEORY":"SGP4","CLASSIFICATION_TYPE":"U","RA_OF_ASC_NODE":"341.8272","COUNTRY_CODE":"US","DECAY_DATE":null,"SEMIMAJOR_AXIS":"6727.862","TLE_LINE1":"1 53038U 22076BE  22268.91668981 -.00072946  00000-0 -51922-3 0  9996","BSTAR":"-0.00051922000000","APOAPSIS":"352.641"},{"GP_ID":"213509070","TLE_LINE2":"2 53043  97.6575  88.6491 0002046  48.3099 311.8300 15.01255536 11749","MEAN_MOTION_DDOT":"0.0000000000000","OBJECT_NAME":"STARLINK-4362","REV_AT_EPOCH":"1174","MEAN_ANOMALY":"311.8300","OBJECT_TYPE":"PAYLOAD","ELEMENT_SET_NO":"999","MEAN_MOTION":"15.01255536","EPOCH":"2022-09-25T18:43:03.303840","ECCENTRICITY":"0.00020460","MEAN_ELEMENT_THEORY":"SGP4","RA_OF_ASC_NODE":"88.6491","CLASSIFICATION_TYPE":"U","APOAPSIS":"564.446","SEMIMAJOR_AXIS":"6941.161","TLE_LINE1":"1 53043U 22077A   22268.77989935  .00001780  00000-0  14315-3 0  9993","BSTAR":"0.00014315000000","COUNTRY_CODE":"US","DECAY_DATE":null,"PERIAPSIS":"561.605","REF_FRAME":"TEME","EPHEMERIS_TYPE":"0","OBJECT_ID":"2022-077A","LAUNCH_DATE":"2022-07-11","ARG_OF_PERICENTER":"48.3099","FILE":"3583828","NORAD_CAT_ID":"53043","PERIOD":"95.920","CENTER_NAME":"EARTH","SITE":"AFWTR","RCS_SIZE":"LARGE","INCLINATION":"97.6575","MEAN_MOTION_DOT":"0.00001780","TIME_SYSTEM":"UTC"},{"MEAN_ELEMENT_THEORY":"SGP4","MEAN_MOTION":"15.01240549","ECCENTRICITY":"0.00023880","EPOCH":"2022-09-25T18:37:45.083136","ELEMENT_SET_NO":"999","COUNTRY_CODE":"US","DECAY_DATE":null,"APOAPSIS":"564.729","TLE_LINE1":"1 53044U 22077B   22268.77621624 -.00002568  00000-0 -19551-3 0  9996","SEMIMAJOR_AXIS":"6941.207","BSTAR":"-0.00019551000000","CLASSIFICATION_TYPE":"U","RA_OF_ASC_NODE":"88.6465","MEAN_MOTION_DDOT":"0.0000000000000","GP_ID":"213509220","TLE_LINE2":"2 53044  97.6558  88.6465 0002388  58.2031 301.9426 15.01240549 11744","MEAN_ANOMALY":"301.9426","OBJECT_TYPE":"PAYLOAD","REV_AT_EPOCH":"1174","OBJECT_NAME":"STARLINK-4349","SITE":"AFWTR","CENTER_NAME":"EARTH","PERIOD":"95.921","TIME_SYSTEM":"UTC","MEAN_MOTION_DOT":"-0.00002568","INCLINATION":"97.6558","RCS_SIZE":"LARGE","EPHEMERIS_TYPE":"0","PERIAPSIS":"561.414","REF_FRAME":"TEME","NORAD_CAT_ID":"53044","FILE":"3583828","LAUNCH_DATE":"2022-07-11","OBJECT_ID":"2022-077B","ARG_OF_PERICENTER":"58.2031"},{"MEAN_MOTION_DDOT":"0.0000000000000","TLE_LINE2":"2 53045  97.6559  88.4475 0002183  55.5258 304.6172 15.01262014 11715","GP_ID":"213508909","OBJECT_TYPE":"PAYLOAD","MEAN_ANOMALY":"304.6172","REV_AT_EPOCH":"1171","OBJECT_NAME":"STARLINK-4350","MEAN_ELEMENT_THEORY":"SGP4","EPOCH":"2022-09-25T13:47:27.760704","ECCENTRICITY":"0.00021830","MEAN_MOTION":"15.01262014","ELEMENT_SET_NO":"999","COUNTRY_CODE":"US","DECAY_DATE":null,"TLE_LINE1":"1 53045U 22077C   22268.57462686  .00001364  00000-0  11073-3 0  9998","SEMIMAJOR_AXIS":"6941.141","BSTAR":"0.00011073000000","APOAPSIS":"564.521","CLASSIFICATION_TYPE":"U","RA_OF_ASC_NODE":"88.4475","EPHEMERIS_TYPE":"0","PERIAPSIS":"561.490","REF_FRAME":"TEME","FILE":"3583828","NORAD_CAT_ID":"53045","ARG_OF_PERICENTER":"55.5258","LAUNCH_DATE":"2022-07-11","OBJECT_ID":"2022-077C","SITE":"AFWTR","CENTER_NAME":"EARTH","PERIOD":"95.919","TIME_SYSTEM":"UTC","INCLINATION":"97.6559","MEAN_MOTION_DOT":"0.00001364","RCS_SIZE":"LARGE"},{"PERIOD":"95.919","SITE":"AFWTR","CENTER_NAME":"EARTH","RCS_SIZE":"LARGE","TIME_SYSTEM":"UTC","INCLINATION":"97.6563","MEAN_MOTION_DOT":"0.00001342","REF_FRAME":"TEME","PERIAPSIS":"561.409","EPHEMERIS_TYPE":"0","ARG_OF_PERICENTER":"46.0150","OBJECT_ID":"2022-077D","LAUNCH_DATE":"2022-07-11","NORAD_CAT_ID":"53046","FILE":"3583828","ECCENTRICITY":"0.00022800","EPOCH":"2022-09-25T13:47:06.425088","MEAN_MOTION":"15.01266712","ELEMENT_SET_NO":"999","MEAN_ELEMENT_THEORY":"SGP4","CLASSIFICATION_TYPE":"U","RA_OF_ASC_NODE":"88.4464","DECAY_DATE":null,"COUNTRY_CODE":"US","BSTAR":"0.00010903000000","TLE_LINE1":"1 53046U 22077D   22268.57437992  .00001342  00000-0  10903-3 0  9998","SEMIMAJOR_AXIS":"6941.126","APOAPSIS":"564.574","MEAN_MOTION_DDOT":"0.0000000000000","TLE_LINE2":"2 53046  97.6563  88.4464 0002280  46.0150 314.1262 15.01266712 11718","GP_ID":"213509798","OBJECT_NAME":"STARLINK-4331","REV_AT_EPOCH":"1171","OBJECT_TYPE":"PAYLOAD","MEAN_ANOMALY":"314.1262"},{"CENTER_NAME":"EARTH","SITE":"AFWTR","PERIOD":"95.919","INCLINATION":"97.6568","MEAN_MOTION_DOT":"0.00000009","TIME_SYSTEM":"UTC","RCS_SIZE":"LARGE","EPHEMERIS_TYPE":"0","PERIAPSIS":"561.455","REF_FRAME":"TEME","NORAD_CAT_ID":"53047","FILE":"3583828","OBJECT_ID":"2022-077E","LAUNCH_DATE":"2022-07-11","ARG_OF_PERICENTER":"40.7372","MEAN_ELEMENT_THEORY":"SGP4","ELEMENT_SET_NO":"999","MEAN_MOTION":"15.01263216","ECCENTRICITY":"0.00022290","EPOCH":"2022-09-25T13:44:26.783808","APOAPSIS":"564.549","SEMIMAJOR_AXIS":"6941.137","TLE_LINE1":"1 53047U 22077E   22268.57253222  .00000009  00000-0  52731-5 0  9997","BSTAR":"0.00000527310000","DECAY_DATE":null,"COUNTRY_CODE":"US","RA_OF_ASC_NODE":"88.4458","CLASSIFICATION_TYPE":"U","TLE_LINE2":"2 53047  97.6568  88.4458 0002229  40.7372 319.4018 15.01263216 11710","GP_ID":"213509486","MEAN_MOTION_DDOT":"0.0000000000000","MEAN_ANOMALY":"319.4018","OBJECT_TYPE":"PAYLOAD","REV_AT_EPOCH":"1171","OBJECT_NAME":"STARLINK-4352"},{"GP_ID":"213509636","TLE_LINE2":"2 53048  97.6575  88.4368 0002238  48.0087 312.1328 15.01261408 11707","MEAN_MOTION_DDOT":"0.0000000000000","OBJECT_NAME":"STARLINK-4355","REV_AT_EPOCH":"1170","MEAN_ANOMALY":"312.1328","OBJECT_TYPE":"PAYLOAD","ELEMENT_SET_NO":"999","MEAN_MOTION":"15.01261408","ECCENTRICITY":"0.00022380","EPOCH":"2022-09-25T13:44:47.855904","MEAN_ELEMENT_THEORY":"SGP4","RA_OF_ASC_NODE":"88.4368","CLASSIFICATION_TYPE":"U","APOAPSIS":"564.561","TLE_LINE1":"1 53048U 22077F   22268.57277611 -.00000634  00000-0 -44764-4 0  9998","SEMIMAJOR_AXIS":"6941.143","BSTAR":"-0.00004476400000","COUNTRY_CODE":"US","DECAY_DATE":null,"PERIAPSIS":"561.454","REF_FRAME":"TEME","EPHEMERIS_TYPE":"0","LAUNCH_DATE":"2022-07-11","OBJECT_ID":"2022-077F","ARG_OF_PERICENTER":"48.0087","NORAD_CAT_ID":"53048","FILE":"3583828","PERIOD":"95.919","CENTER_NAME":"EARTH","SITE":"AFWTR","RCS_SIZE":"LARGE","MEAN_MOTION_DOT":"-0.00000634","INCLINATION":"97.6575","TIME_SYSTEM":"UTC"},{"MEAN_MOTION_DDOT":"0.0000000000000","GP_ID":"213509326","TLE_LINE2":"2 53049  97.6582  88.6955 0002334  51.2127 308.9305 15.01262707 11743","REV_AT_EPOCH":"1174","OBJECT_NAME":"STARLINK-4345","OBJECT_TYPE":"PAYLOAD","MEAN_ANOMALY":"308.9305","EPOCH":"2022-09-25T20:00:43.453728","ECCENTRICITY":"0.00023340","MEAN_MOTION":"15.01262707","ELEMENT_SET_NO":"999","MEAN_ELEMENT_THEORY":"SGP4","CLASSIFICATION_TYPE":"U","RA_OF_ASC_NODE":"88.6955","DECAY_DATE":null,"COUNTRY_CODE":"US","TLE_LINE1":"1 53049U 22077G   22268.83383627  .00001595  00000-0  12871-3 0  9991","SEMIMAJOR_AXIS":"6941.139","BSTAR":"0.00012871000000","APOAPSIS":"564.624","PERIAPSIS":"561.383","REF_FRAME":"TEME","EPHEMERIS_TYPE":"0","ARG_OF_PERICENTER":"51.2127","LAUNCH_DATE":"2022-07-11","OBJECT_ID":"2022-077G","FILE":"3583828","NORAD_CAT_ID":"53049","PERIOD":"95.919","SITE":"AFWTR","CENTER_NAME":"EARTH","RCS_SIZE":"LARGE","TIME_SYSTEM":"UTC","INCLINATION":"97.6582","MEAN_MOTION_DOT":"0.00001595"},{"TLE_LINE2":"2 53050  97.6583  88.4370 0002122  59.5339 300.6095 15.01246125 11703","GP_ID":"213510038","MEAN_MOTION_DDOT":"0.0000000000000","OBJECT_NAME":"STARLINK-4343","REV_AT_EPOCH":"1170","OBJECT_TYPE":"PAYLOAD","MEAN_ANOMALY":"300.6095","ELEMENT_SET_NO":"999","ECCENTRICITY":"0.00021220","EPOCH":"2022-09-25T13:41:48.330528","MEAN_MOTION":"15.01246125","MEAN_ELEMENT_THEORY":"SGP4","RA_OF_ASC_NODE":"88.4370","CLASSIFICATION_TYPE":"U","BSTAR":"0.00030044000000","TLE_LINE1":"1 53050U 22077H   22268.57069827  .00003801  00000-0  30044-3 0  9991","SEMIMAJOR_AXIS":"6941.190","APOAPSIS":"564.528","DECAY_DATE":null,"COUNTRY_CODE":"US","PERIAPSIS":"561.582","REF_FRAME":"TEME","EPHEMERIS_TYPE":"0","ARG_OF_PERICENTER":"59.5339","LAUNCH_DATE":"2022-07-11","OBJECT_ID":"2022-077H","FILE":"3583828","NORAD_CAT_ID":"53050","PERIOD":"95.920","CENTER_NAME":"EARTH","SITE":"AFWTR","RCS_SIZE":"LARGE","MEAN_MOTION_DOT":"0.00003801","INCLINATION":"97.6583","TIME_SYSTEM":"UTC"}];
